{"type": "FeatureCollection", "features": [{"type": "Feature", "properties": {"norad_id": 2807, "name": "OPS 7218 (TRANSIT 16)", "group": "nnss", "lat": 88.4376071332425, "lon": 161.99925996274743, "alt_km": 1047.6610064065844, "timestamp": "2025-12-10T21:43:22.356443+00:00", "meta": {"OBJECT_NAME": "OPS 7218 (TRANSIT 16)", "OBJECT_ID": "1967-048A", "EPOCH": "2025-12-10T11:12:53.544960", "MEAN_MOTION": 13.50721568, "ECCENTRICITY": 0.00218613, "INCLINATION": 89.6732, "RA_OF_ASC_NODE": 354.0916, "ARG_OF_PERICENTER": 120.1596, "MEAN_ANOMALY": 3.7393, "EPHEMERIS_TYPE": 0, "CLASSIFICATION_TYPE": "U", "NORAD_CAT_ID": 2807, "ELEMENT_SET_NO": 999, "REV_AT_EPOCH": 88245, "BSTAR": 0.00020523115, "MEAN_MOTION_DOT": 1.43e-06, "MEAN_MOTION_DDOT": 0}, "tle": {"line1": "1 02807U 67048A   25344.46728640  .00000143  00000+0  20523-3 0  9999", "line2": "2 02807  89.6732 354.0916 0021861 120.1596   3.7393 13.50721568882454"}}, "geometry": {"type": "Point", "coordinates": [161.99925996274743, 88.4376071332425]}}, {"type": "Feature", "properties": {"norad_id": 2965, "name": "OPS 4947 (TRANSIT 17)", "group": "nnss", "lat": 42.32056337247172, "lon": -156.10790903474435, "alt_km": 1063.396373864406, "timestamp": "2025-12-10T21:43:22.356465+00:00", "meta": {"OBJECT_NAME": "OPS 4947 (TRANSIT 17)", "OBJECT_ID": "1967-092A", "EPOCH": "2025-12-10T12:45:19.206720", "MEAN_MOTION": 13.53452631, "ECCENTRICITY": 0.00460603, "INCLINATION": 89.2498, "RA_OF_ASC_NODE": 24.6041, "ARG_OF_PERICENTER": 241.1249, "MEAN_ANOMALY": 237.5005, "EPHEMERIS_TYPE": 0, "CLASSIFICATION_TYPE": "U", "NORAD_CAT_ID": 2965, "ELEMENT_SET_NO": 999, "REV_AT_EPOCH": 87067, "BSTAR": 0.00023317843, "MEAN_MOTION_DOT": 1.69e-06, "MEAN_MOTION_DDOT": 0}, "tle": {"line1": "1 02965U 67092A   25344.53147230  .00000169  00000+0  23318-3 0  9994", "line2": "2 02965  89.2498  24.6041 0046060 241.1249 237.5005 13.53452631870673"}}, "geometry": {"type": "Point", "coordinates": [-156.10790903474435, 42.32056337247172]}}, {"type": "Feature", "properties": {"norad_id": 3133, "name": "OPS 7034 (TRANSIT 18)", "group": "nnss", "lat": -59.62580601742613, "lon": -86.31903342171512, "alt_km": 1105.6757599329349, "timestamp": "2025-12-10T21:43:22.356479+00:00", "meta": {"OBJECT_NAME": "OPS 7034 (TRANSIT 18)", "OBJECT_ID": "1968-012A", "EPOCH": "2025-12-10T13:59:24.625824", "MEAN_MOTION": 13.51564896, "ECCENTRICITY": 0.00736384, "INCLINATION": 90.0278, "RA_OF_ASC_NODE": 273.6326, "ARG_OF_PERICENTER": 175.3824, "MEAN_ANOMALY": 357.6163, "EPHEMERIS_TYPE": 0, "CLASSIFICATION_TYPE": "U", "NORAD_CAT_ID": 3133, "ELEMENT_SET_NO": 999, "REV_AT_EPOCH": 56889, "BSTAR": 0.00025956837, "MEAN_MOTION_DOT": 1.82e-06, "MEAN_MOTION_DDOT": 0}, "tle": {"line1": "1 03133U 68012A   25344.58292391  .00000182  00000+0  25957-3 0  9995", "line2": "2 03133  90.0278 273.6326 0073638 175.3824 357.6163 13.51564896568899"}}, "geometry": {"type": "Point", "coordinates": [-86.31903342171512, -59.62580601742613]}}, {"type": "Feature", "properties": {"norad_id": 4507, "name": "NNSS 19 (TRANSIT 19)", "group": "nnss", "lat": -88.00185388625506, "lon": -125.30692481913455, "alt_km": 960.9737054091111, "timestamp": "2025-12-10T21:43:22.356490+00:00", "meta": {"OBJECT_NAME": "NNSS 19 (TRANSIT 19)", "OBJECT_ID": "1970-067A", "EPOCH": "2025-12-10T06:09:04.713984", "MEAN_MOTION": 13.51314209, "ECCENTRICITY": 0.0170695, "INCLINATION": 90.0056, "RA_OF_ASC_NODE": 234.5321, "ARG_OF_PERICENTER": 300.6377, "MEAN_ANOMALY": 57.8039, "EPHEMERIS_TYPE": 0, "CLASSIFICATION_TYPE": "U", "NORAD_CAT_ID": 4507, "ELEMENT_SET_NO": 999, "REV_AT_EPOCH": 72188, "BSTAR": 0.00026981, "MEAN_MOTION_DOT": 1.99e-06, "MEAN_MOTION_DDOT": 0}, "tle": {"line1": "1 04507U 70067A   25344.25630456  .00000199  00000+0  26981-3 0  9992", "line2": "2 04507  90.0056 234.5321 0170695 300.6377  57.8039 13.51314209721889"}}, "geometry": {"type": "Point", "coordinates": [-125.30692481913455, -88.00185388625506]}}, {"type": "Feature", "properties": {"norad_id": 6909, "name": "NNSS 20 (TRANSIT 20)", "group": "nnss", "lat": -34.31494688781002, "lon": 75.17972267381971, "alt_km": 1074.622529070317, "timestamp": "2025-12-10T21:43:22.356501+00:00", "meta": {"OBJECT_NAME": "NNSS 20 (TRANSIT 20)", "OBJECT_ID": "1973-081A", "EPOCH": "2025-12-10T06:41:18.269088", "MEAN_MOTION": 13.71432468, "ECCENTRICITY": 0.0156615, "INCLINATION": 89.8563, "RA_OF_ASC_NODE": 255.091, "ARG_OF_PERICENTER": 85.6012, "MEAN_ANOMALY": 276.3026, "EPHEMERIS_TYPE": 0, "CLASSIFICATION_TYPE": "U", "NORAD_CAT_ID": 6909, "ELEMENT_SET_NO": 999, "REV_AT_EPOCH": 80327, "BSTAR": 0.00033624, "MEAN_MOTION_DOT": 3.42e-06, "MEAN_MOTION_DDOT": 0}, "tle": {"line1": "1 06909U 73081A   25344.27868367  .00000342  00000+0  33624-3 0  9997", "line2": "2 06909  89.8563 255.0910 0156615  85.6012 276.3026 13.71432468803278"}}, "geometry": {"type": "Point", "coordinates": [75.17972267381971, -34.31494688781002]}}, {"type": "Feature", "properties": {"norad_id": 10457, "name": "TRANSAT", "group": "nnss", "lat": -66.26761052518526, "lon": 77.86123377389293, "alt_km": 1086.3477962291172, "timestamp": "2025-12-10T21:43:22.356512+00:00", "meta": {"OBJECT_NAME": "TRANSAT", "OBJECT_ID": "1977-106A", "EPOCH": "2025-12-10T13:12:22.493376", "MEAN_MOTION": 13.48943133, "ECCENTRICITY": 0.00251858, "INCLINATION": 89.6482, "RA_OF_ASC_NODE": 78.6745, "ARG_OF_PERICENTER": 195.8787, "MEAN_ANOMALY": 175.373, "EPHEMERIS_TYPE": 0, "CLASSIFICATION_TYPE": "U", "NORAD_CAT_ID": 10457, "ELEMENT_SET_NO": 999, "REV_AT_EPOCH": 36714, "BSTAR": 0.0001950246, "MEAN_MOTION_DOT": 1.32e-06, "MEAN_MOTION_DDOT": 0}, "tle": {"line1": "1 10457U 77106A   25344.55026034  .00000132  00000+0  19502-3 0  9996", "line2": "2 10457  89.6482  78.6745 0025185 195.8787 175.3730 13.48943133367145"}}, "geometry": {"type": "Point", "coordinates": [77.86123377389293, -66.26761052518526]}}, {"type": "Feature", "properties": {"norad_id": 12458, "name": "NOVA 1", "group": "nnss", "lat": 4.016346457383803, "lon": 91.42139607501149, "alt_km": 1177.5389622345565, "timestamp": "2025-12-10T21:43:22.356523+00:00", "meta": {"OBJECT_NAME": "NOVA 1", "OBJECT_ID": "1981-044A", "EPOCH": "2025-12-10T14:30:00.893664", "MEAN_MOTION": 13.23278193, "ECCENTRICITY": 0.0015872, "INCLINATION": 89.8524, "RA_OF_ASC_NODE": 91.4153, "ARG_OF_PERICENTER": 109.2382, "MEAN_ANOMALY": 262.2651, "EPHEMERIS_TYPE": 0, "CLASSIFICATION_TYPE": "U", "NORAD_CAT_ID": 12458, "ELEMENT_SET_NO": 999, "REV_AT_EPOCH": 15158, "BSTAR": 0.00017333414, "MEAN_MOTION_DOT": 8.2e-07, "MEAN_MOTION_DDOT": 0}, "tle": {"line1": "1 12458U 81044A   25344.60417701  .00000082  00000+0  17333-3 0  9990", "line2": "2 12458  89.8524  91.4153 0015872 109.2382 262.2651 13.23278193151582"}}, "geometry": {"type": "Point", "coordinates": [91.42139607501149, 4.016346457383803]}}, {"type": "Feature", "properties": {"norad_id": 15362, "name": "NOVA 3", "group": "nnss", "lat": -58.248769894508925, "lon": -99.68477824949053, "alt_km": 1183.836772309145, "timestamp": "2025-12-10T21:43:22.356533+00:00", "meta": {"OBJECT_NAME": "NOVA 3", "OBJECT_ID": "1984-110A", "EPOCH": "2025-12-10T13:18:53.723808", "MEAN_MOTION": 13.23044283, "ECCENTRICITY": 0.00306501, "INCLINATION": 90.1224, "RA_OF_ASC_NODE": 80.509, "ARG_OF_PERICENTER": 338.1443, "MEAN_ANOMALY": 32.7388, "EPHEMERIS_TYPE": 0, "CLASSIFICATION_TYPE": "U", "NORAD_CAT_ID": 15362, "ELEMENT_SET_NO": 999, "REV_AT_EPOCH": 98670, "BSTAR": 0.00023445638, "MEAN_MOTION_DOT": 1.07e-06, "MEAN_MOTION_DDOT": 0}, "tle": {"line1": "1 15362U 84110A   25344.55478847  .00000107  00000+0  23446-3 0  9996", "line2": "2 15362  90.1224  80.5090 0030650 338.1443  32.7388 13.23044283986700"}}, "geometry": {"type": "Point", "coordinates": [-99.68477824949053, -58.248769894508925]}}, {"type": "Feature", "properties": {"norad_id": 15935, "name": "OSCAR 30", "group": "nnss", "lat": -54.525299974107, "lon": -80.41453039627422, "alt_km": 1235.001140744832, "timestamp": "2025-12-10T21:43:22.356544+00:00", "meta": {"OBJECT_NAME": "OSCAR 30", "OBJECT_ID": "1985-066A", "EPOCH": "2025-12-10T13:26:15.825696", "MEAN_MOTION": 13.3607789, "ECCENTRICITY": 0.01694205, "INCLINATION": 90.1649, "RA_OF_ASC_NODE": 99.8114, "ARG_OF_PERICENTER": 89.9877, "MEAN_ANOMALY": 283.8879, "EPHEMERIS_TYPE": 0, "CLASSIFICATION_TYPE": "U", "NORAD_CAT_ID": 15935, "ELEMENT_SET_NO": 999, "REV_AT_EPOCH": 96424, "BSTAR": 0.00026119835, "MEAN_MOTION_DOT": 1.55e-06, "MEAN_MOTION_DDOT": 0}, "tle": {"line1": "1 15935U 85066A   25344.55990539  .00000155  00000+0  26120-3 0  9995", "line2": "2 15935  90.1649  99.8114 0169420  89.9877 283.8879 13.36077890964240"}}, "geometry": {"type": "Point", "coordinates": [-80.41453039627422, -54.525299974107]}}, {"type": "Feature", "properties": {"norad_id": 15936, "name": "OSCAR 24", "group": "nnss", "lat": -51.53180288689604, "lon": 92.49825942769452, "alt_km": 1237.9773223893808, "timestamp": "2025-12-10T21:43:22.356555+00:00", "meta": {"OBJECT_NAME": "OSCAR 24", "OBJECT_ID": "1985-066B", "EPOCH": "2025-12-10T13:03:08.404992", "MEAN_MOTION": 13.35935362, "ECCENTRICITY": 0.0170487, "INCLINATION": 90.1789, "RA_OF_ASC_NODE": 92.2666, "ARG_OF_PERICENTER": 96.4685, "MEAN_ANOMALY": 276.6807, "EPHEMERIS_TYPE": 0, "CLASSIFICATION_TYPE": "U", "NORAD_CAT_ID": 15936, "ELEMENT_SET_NO": 999, "REV_AT_EPOCH": 96614, "BSTAR": 0.00022344128, "MEAN_MOTION_DOT": 1.34e-06, "MEAN_MOTION_DDOT": 0}, "tle": {"line1": "1 15936U 85066B   25344.54384728  .00000134  00000+0  22344-3 0  9993", "line2": "2 15936  90.1789  92.2666 0170487  96.4685 276.6807 13.35935362966148"}}, "geometry": {"type": "Point", "coordinates": [92.49825942769452, -51.53180288689604]}}]}